FENGYUN 1C DEB          
1 35241U 99025DQZ 17345.19740090  .00000620  00000-0  48248-3 0  9997
2 35241  98.6517  73.5361 0153141  16.7857 343.8293 13.90506639470608
